[{"OBJECT_NAME":"STARLINK-35411","OBJECT_ID":"2025-268D","EPOCH":"2026-03-09T04:41:57.674688","MEAN_MOTION":15.27576721,"ECCENTRICITY":0.00011588,"INCLINATION":42.9996,"RA_OF_ASC_NODE":349.8996,"ARG_OF_PERICENTER":286.5987,"MEAN_ANOMALY":73.4737,"EPHEMERIS_TYPE":0,"CLASSIFICATION_TYPE":"U","NORAD_CAT_ID":66560,"ELEMENT_SET_NO":999,"REV_AT_EPOCH":1788,"BSTAR":0.001097542,"MEAN_MOTION_DOT":0.0003006,"MEAN_MOTION_DDOT":0},{"OBJECT_NAME":"OBJECT BD","OBJECT_ID":"2025-313BD","EPOCH":"2026-03-09T15:06:44.992224","MEAN_MOTION":15.3000236,"ECCENTRICITY":0.00072867,"INCLINATION":97.397,"RA_OF_ASC_NODE":145.285,"ARG_OF_PERICENTER":333.4514,"MEAN_ANOMALY":26.6352,"EPHEMERIS_TYPE":0,"CLASSIFICATION_TYPE":"U","NORAD_CAT_ID":67299,"ELEMENT_SET_NO":999,"REV_AT_EPOCH":1083,"BSTAR":0.0027633805,"MEAN_MOTION_DOT":0.0008101,"MEAN_MOTION_DDOT":0}]
