STARLINK-35411          
1 66560U 25268D   26068.19580642  .00030060  00000+0  10975-2 0  9995
2 66560  42.9996 349.8996 0001158 286.5987  73.4737 15.27576721 17880
2025-313BD              
1 67299U 25313BD  26068.62968741  .00081010  00000+0  27634-2 0  9995
2 67299  97.3970 145.2850 0007287 333.4514  26.6352 15.30002360 10838
